OBJECT_NAME,OBJECT_ID,EPOCH,MEAN_MOTION,ECCENTRICITY,INCLINATION,RA_OF_ASC_NODE,ARG_OF_PERICENTER,MEAN_ANOMALY,EPHEMERIS_TYPE,CLASSIFICATION_TYPE,NORAD_CAT_ID,ELEMENT_SET_NO,REV_AT_EPOCH,BSTAR,MEAN_MOTION_DOT,MEAN_MOTION_DDOT
KUIPER-00522,2026-140L,2026-07-16T13:06:00.641664,15.38614832,.0013125,51.8765,256.4972,273.5705,86.3781,0,U,69602,999,575,.37748E-3,.14289E-3,0
KUIPER-00528,2026-140M,2026-07-16T13:50:59.851968,15.37521210,.0005937,51.8776,256.6977,4.3015,355.8022,0,U,69603,999,575,.41531E-3,.15171E-3,0
KUIPER-00532,2026-140N,2026-07-17T13:33:17.124192,15.36593077,.00052518,51.8772,252.0635,40.3376,319.7999,0,U,69604,999,590,.37928068E-3,.134E-3,0
KUIPER-00533,2026-140P,2026-07-17T11:16:54.376320,15.38310764,.00077225,51.8770,252.1844,334.6511,25.4096,0,U,69605,999,589,.33123441E-3,.12339E-3,0
KUIPER-00534,2026-140Q,2026-07-17T10:47:46.231296,15.38758335,.0013271,51.8806,252.0642,277.4258,82.5221,0,U,69606,999,589,.32335658E-3,.12238E-3,0
KUIPER-00537,2026-140R,2026-07-17T12:39:42.848928,15.34117941,.00106658,51.8783,252.5651,62.7872,297.4200,0,U,69607,999,589,.37046596E-3,.12076E-3,0
KUIPER-00538,2026-140S,2026-07-17T03:45:30.267648,15.37766687,.0006734,51.8789,253.8397,350.5658,9.5202,0,U,69608,999,584,.38887768E-3,.14296E-3,0
KUIPER-00540,2026-140T,2026-07-17T13:25:52.083840,15.36993724,.00067405,51.8795,252.0414,31.4863,328.6526,0,U,69609,999,590,.20352011E-3,.7099E-4,0
KUIPER-00541,2026-140U,2026-07-17T11:16:12.721152,15.38242739,.00081454,51.8799,252.1977,331.3086,28.7452,0,U,69610,999,589,.2887956E-3,.10681E-3,0
KUIPER-00542,2026-140V,2026-07-17T12:48:10.472256,15.38325011,.00077221,51.8775,251.8620,315.1975,44.8388,0,U,69611,999,590,.3066553E-3,.11398E-3,0
KUIPER-00543,2026-140W,2026-07-17T13:32:44.058048,15.36870503,.00080004,51.8760,252.0592,42.7293,317.4314,0,U,69612,999,590,.3336576E-3,.11852E-3,0
KUIPER-00544,2026-140X,2026-07-16T10:24:24.778368,15.38205711,.0006941,51.8777,257.2376,323.8770,36.1747,0,U,69613,999,573,.41195E-3,.15393E-3,0
KUIPER-00546,2026-140Y,2026-07-17T04:36:17.433216,15.38069352,.00139107,51.8777,253.3281,272.1248,87.8146,0,U,69614,999,585,.53091242E-3,.19921E-3,0
KUIPER-00547,2026-140Z,2026-07-17T12:47:03.159744,15.37873504,.00111798,51.8822,251.8650,295.3972,64.5857,0,U,69615,999,590,-.61288473E-3,-.23556E-3,0
KUIPER-00549,2026-140AA,2026-07-17T13:17:45.107520,15.37370033,.00079744,51.8770,251.9940,23.7391,336.3962,0,U,69616,999,590,.31279388E-3,.1127E-3,0
KUIPER-00550,2026-140AB,2026-07-17T14:40:54.660000,15.31395097,.00086352,51.8787,252.3666,71.1882,289.0038,0,U,69617,999,590,-.19703621E-2,-.60578E-3,0
KUIPER-00551,2026-140AC,2026-07-17T12:35:22.569792,15.38280263,.00119482,51.8763,251.8075,290.9919,68.9790,0,U,69618,999,590,.3012395E-3,.11186E-3,0
KUIPER-00554,2026-140AD,2026-07-17T11:10:39.821088,15.38021157,.00109339,51.8774,252.1577,299.1214,60.8678,0,U,69619,999,589,.29094922E-3,.10692E-3,0
KUIPER-00555,2026-140AE,2026-07-17T12:40:25.499424,15.38000281,.00114645,51.8803,251.8375,293.0644,66.9134,0,U,69620,999,590,.32143977E-3,.11851E-3,0
KUIPER-00556,2026-140AF,2026-07-17T12:37:56.487936,15.38306805,.00122092,51.8790,251.8212,275.8759,84.0837,0,U,69621,999,590,.2367297E-3,.871E-4,0
KUIPER-00557,2026-140AG,2026-07-17T03:32:09.245472,15.37514067,.00095662,51.8798,253.7806,307.0267,52.9844,0,U,69622,999,584,-.63982126E-4,-.2792E-4,0
KUIPER-00560,2026-140AH,2026-07-17T14:00:01.999872,15.37001506,.00094496,51.8773,251.5698,322.3278,340.1763,0,U,69623,999,548,.13779837E-2,.50672E-3,0
KUIPER-00561,2026-140AJ,2026-07-17T12:40:18.704064,15.38770579,.00083733,51.8811,251.8391,319.0238,41.0119,0,U,69624,999,590,.39759169E-3,.15128E-3,0
KUIPER-00564,2026-140AK,2026-07-17T11:16:28.112448,15.37207261,.00091392,51.8809,252.1884,303.5856,56.4258,0,U,69625,999,589,-.10290225E-3,-.4207E-4,0
KUIPER-00567,2026-140AL,2026-07-17T12:34:10.744608,15.38335096,.00132327,51.8781,251.7979,277.9947,81.9539,0,U,69626,999,590,.28365461E-3,.10533E-3,0
KUIPER-00573,2026-140AM,2026-07-17T03:37:41.997792,15.37517892,.0009311,51.8770,253.7966,292.5254,67.4747,0,U,69627,999,584,.39088574E-3,.14263E-3,0
CENTISPACE-1 GROUP 05 OBJECT J,2026-138J,2026-07-13T09:42:48.125952,14.15842380,.00095471,55.1383,184.3032,341.3483,18.7141,0,U,69636,999,370,-.51944164E-4,-.256E-5,0
VICTUS HAZE PUMA,2026-142A,2026-07-17T06:50:10.926816,15.21130484,.00264096,97.4460,95.5636,259.4735,100.3525,0,U,69646,999,424,.10157172E-3,.2209E-4,0
HOKUSHIN-1,1998-067YH,2026-07-17T02:19:38.950176,15.51069113,.00061398,51.6321,151.7964,336.9196,23.1516,0,U,69648,999,429,.26826479E-3,.15479E-3,0
