KUIPER-00522            
1 69602U 26140L   26197.54584076  .00014289  00000+0  37748-3 0  9995
2 69602  51.8765 256.4972 0013125 273.5705  86.3781 15.38614832  5754
KUIPER-00528            
1 69603U 26140M   26197.57708162  .00015171  00000+0  41531-3 0  9999
2 69603  51.8776 256.6977 0005937   4.3015 355.8022 15.37521210  5758
KUIPER-00532            
1 69604U 26140N   26198.56478153  .00013400  00000+0  37928-3 0  9992
2 69604  51.8772 252.0635 0005251  40.3376 319.7999 15.36593077  5903
KUIPER-00533            
1 69605U 26140P   26198.47007380  .00012339  00000+0  33123-3 0  9996
2 69605  51.8770 252.1844 0007722 334.6511  25.4096 15.38310764  5899
KUIPER-00534            
1 69606U 26140Q   26198.44984064  .00012238  00000+0  32336-3 0  9990
2 69606  51.8806 252.0642 0013271 277.4258  82.5221 15.38758335  5897
KUIPER-00537            
1 69607U 26140R   26198.52757927  .00012076  00000+0  37047-3 0  9990
2 69607  51.8783 252.5651 0010665  62.7872 297.4200 15.34117941  5890
KUIPER-00538            
1 69608U 26140S   26198.15660032  .00014296  00000+0  38888-3 0  9990
2 69608  51.8789 253.8397 0006734 350.5658   9.5202 15.37766687  5849
KUIPER-00540            
1 69609U 26140T   26198.55963060  .00007099  00000+0  20352-3 0  9992
2 69609  51.8795 252.0414 0006740  31.4863 328.6526 15.36993724  5902
KUIPER-00541            
1 69610U 26140U   26198.46959168  .00010681  00000+0  28880-3 0  9993
2 69610  51.8799 252.1977 0008145 331.3086  28.7452 15.38242739  5892
KUIPER-00542            
1 69611U 26140V   26198.53345454  .00011398  00000+0  30666-3 0  9990
2 69611  51.8775 251.8620 0007722 315.1975  44.8388 15.38325011  5909
KUIPER-00543            
1 69612U 26140W   26198.56439882  .00011852  00000+0  33366-3 0  9998
2 69612  51.8760 252.0592 0008000  42.7293 317.4314 15.36870503  5908
KUIPER-00544            
1 69613U 26140X   26197.43362012  .00015393  00000+0  41195-3 0  9997
2 69613  51.8777 257.2376 0006941 323.8770  36.1747 15.38205711  5730
KUIPER-00546            
1 69614U 26140Y   26198.19186844  .00019921  00000+0  53091-3 0  9998
2 69614  51.8777 253.3281 0013910 272.1248  87.8146 15.38069352  5851
KUIPER-00547            
1 69615U 26140Z   26198.53267546 -.00023556  00000+0 -61288-3 0  9994
2 69615  51.8822 251.8650 0011179 295.3972  64.5857 15.37873504  5900
KUIPER-00549            
1 69616U 26140AA  26198.55399430  .00011270  00000+0  31279-3 0  9990
2 69616  51.8770 251.9940 0007974  23.7391 336.3962 15.37370033  5908
KUIPER-00550            
1 69617U 26140AB  26198.61174375 -.00060578  00000+0 -19704-2 0  9992
2 69617  51.8787 252.3666 0008635  71.1882 289.0038 15.31395097  5903
KUIPER-00551            
1 69618U 26140AC  26198.52456678  .00011186  00000+0  30124-3 0  9991
2 69618  51.8763 251.8075 0011948 290.9919  68.9790 15.38280263  5903
KUIPER-00554            
1 69619U 26140AD  26198.46573867  .00010692  00000+0  29095-3 0  9991
2 69619  51.8774 252.1577 0010933 299.1214  60.8678 15.38021157  5898
KUIPER-00555            
1 69620U 26140AE  26198.52807291  .00011851  00000+0  32144-3 0  9998
2 69620  51.8803 251.8375 0011464 293.0644  66.9134 15.38000281  5906
KUIPER-00556            
1 69621U 26140AF  26198.52634824  .00008710  00000+0  23673-3 0  9996
2 69621  51.8790 251.8212 0012209 275.8759  84.0837 15.38306805  5907
KUIPER-00557            
1 69622U 26140AG  26198.14732923 -.00002792  00000+0 -63982-4 0  9998
2 69622  51.8798 253.7806 0009566 307.0267  52.9844 15.37514067  5845
KUIPER-00560            
1 69623U 26140AH  26198.58335648  .00050672  00000+0  13780-2 0  9997
2 69623  51.8773 251.5698 0009449 322.3278 340.1763 15.37001506  5487
KUIPER-00561            
1 69624U 26140AJ  26198.52799426  .00015128  00000+0  39759-3 0  9992
2 69624  51.8811 251.8391 0008373 319.0238  41.0119 15.38770579  5901
KUIPER-00564            
1 69625U 26140AK  26198.46976982 -.00004207  00000+0 -10290-3 0  9997
2 69625  51.8809 252.1884 0009139 303.5856  56.4258 15.37207261  5899
KUIPER-00567            
1 69626U 26140AL  26198.52373547  .00010533  00000+0  28365-3 0  9992
2 69626  51.8781 251.7979 0013232 277.9947  81.9539 15.38335096  5909
KUIPER-00573            
1 69627U 26140AM  26198.15118053  .00014263  00000+0  39089-3 0  9990
2 69627  51.8770 253.7966 0009311 292.5254  67.4747 15.37517892  5841
CENTISPACE-1 GROUP 05 O*
1 69636U 26138J   26194.40472368 -.00000256  00000+0 -51944-4 0  9997
2 69636  55.1383 184.3032 0009547 341.3483  18.7141 14.15842380  3707
VICTUS HAZE PUMA        
1 69646U 26142A   26198.28484869  .00002209  00000+0  10157-3 0  9990
2 69646  97.4460  95.5636 0026409 259.4735 100.3525 15.21130484  4248
HOKUSHIN-1              
1 69648U 98067YH  26198.09697859  .00015479  00000+0  26826-3 0  9994
2 69648  51.6321 151.7964 0006139 336.9196  23.1516 15.51069113  4297
